NORAD_CAT_ID,OBJECT_NAME,OBJECT_TYPE,EPOCH,MEAN_MOTION,ECCENTRICITY,INCLINATION,RA_OF_ASC_NODE,ARG_OF_PERICENTER,MEAN_ANOMALY,BSTAR,MEAN_MOTION_DOT,MEAN_MOTION_DDOT,TLE_LINE0,TLE_LINE1,TLE_LINE2,SEMIMAJOR_AXIS,PERIOD,APOGEE,PERIGEE,DECAYED
51996.0,STARLINK-3538,PAYLOAD,2022-06-12 14:00:01,15.33653771,0.0001288,53.2174,33.2492,106.0995,199.7224,-0.023479,-0.00715446,0.0,0 STARLINK-3538,1 51996U 22025AS  22163.58334491 -.00715446  00000-0 -23479-1 0  9997,2 51996  53.2174  33.2492 0001288 106.0995 199.7224 15.33653771  1305,6843.059,93.893,465.805,464.043,0.0
51996.0,STARLINK-3538,PAYLOAD,2022-06-12 22:00:00,15.33146066,0.000119,53.2173,31.6965,93.4009,253.5211,-0.023979,-0.00718708,0.0,0 STARLINK-3538,1 51996U 22025AS  22163.91667824 -.00718708  00000-0 -23979-1 0  9992,2 51996  53.2173  31.6965 0001190  93.4009 253.5211 15.33146066 16235,6844.57,93.925,467.249,465.62,0.0
51996.0,STARLINK-3538,PAYLOAD,2022-06-13 14:00:01,15.32124275,0.0001189,53.2174,28.5888,103.0855,324.2043,-0.024652,-0.00715636,0.0,0 STARLINK-3538,1 51996U 22025AS  22164.58334491 -.00715636  00000-0 -24652-1 0  9993,2 51996  53.2174  28.5888 0001189 103.0855 324.2043 15.32124275  1308,6847.613,93.987,470.292,468.663,0.0
51996.0,STARLINK-3538,PAYLOAD,2022-06-13 22:00:00,15.31616776,0.0001243,53.2173,27.0399,88.6636,17.8878,-0.025195,-0.007195,0.0,0 STARLINK-3538,1 51996U 22025AS  22164.91667824 -.00719500  00000-0 -25195-1 0  9996,2 51996  53.2173  27.0399 0001243  88.6636  17.8878 15.31616776  1306,6849.125,94.018,471.841,470.139,0.0
51996.0,STARLINK-3538,PAYLOAD,2022-06-14 14:00:01,15.30595913,0.0001516,53.2173,23.9395,118.6713,64.5709,-0.025937,-0.00717577,0.0,0 STARLINK-3538,1 51996U 22025AS  22165.58334491 -.00717577  00000-0 -25937-1 0  9997,2 51996  53.2173  23.9395 0001516 118.6713  64.5709 15.30595913  1300,6852.17,94.081,475.074,472.996,0.0
51996.0,STARLINK-3538,PAYLOAD,2022-06-14 22:00:00,15.3008486,0.0001385,53.2173,22.3938,91.8065,128.8606,-0.026293,-0.00716038,0.0,0 STARLINK-3538,1 51996U 22025AS  22165.91667824 -.00716038  00000-0 -26293-1 0  9990,2 51996  53.2173  22.3938 0001385  91.8065 128.8606 15.30084860  1306,6853.696,94.112,476.51,474.612,0.0
51996.0,STARLINK-3538,PAYLOAD,2022-06-15 14:00:01,15.29064173,0.0001394,53.2175,19.3006,112.6898,180.9913,-0.027066,-0.00714262,0.0,0 STARLINK-3538,1 51996U 22025AS  22166.58334491 -.00714262  00000-0 -27066-1 0  9991,2 51996  53.2175  19.3006 0001394 112.6898 180.9913 15.29064173 16642,6856.746,94.175,479.566,477.655,0.0
51996.0,STARLINK-3538,PAYLOAD,2022-06-15 22:00:00,15.28556008,0.0001240999999999,53.2174,17.7589,94.8577,234.4086,-0.027635,-0.00725956,0.0,0 STARLINK-3538,1 51996U 22025AS  22166.91667824 -.00725956  00000-0 -27635-1 0  9991,2 51996  53.2174  17.7589 0001241  94.8577 234.4086 15.28556008  1300,6858.265,94.207,480.981,479.279,0.0
51996.0,STARLINK-3538,PAYLOAD,2022-06-16 02:00:01,15.28300273,0.0001415,53.2171,16.9875,115.4311,51.399,-0.02776,-0.00723703,0.0,0 STARLINK-3538,1 51996U 22025AS  22167.08334491 -.00723703  00000-0 -27760-1 0  9998,2 51996  53.2171  16.9875 0001415 115.4311  51.3990 15.28300273  1306,6859.03,94.222,481.866,479.925,0.0
51996.0,STARLINK-3538,PAYLOAD,2022-06-19 14:00:01,15.22945355,0.0001304,53.2176,0.8539,101.4019,218.88,-0.0326329999999999,-0.00723475,0.0,0 STARLINK-3538,1 51996U 22025AS  22170.58334491 -.00723475  00000-0 -32633-1 0  9998,2 51996  53.2176   0.8539 0001304 101.4019 218.8800 15.22945355  1307,6875.099,94.554,497.861,496.068,0.0
51996.0,STARLINK-3538,PAYLOAD,2022-06-19 22:00:00,15.22435087,0.0001248,53.2175,359.3264,101.7306,246.7841,-0.033126,-0.00723348,0.0,0 STARLINK-3538,1 51996U 22025AS  22170.91667824 -.00723348  00000-0 -33126-1 0  9991,2 51996  53.2175 359.3264 0001248 101.7306 246.7841 15.22435087  1303,6876.635,94.585,499.358,497.642,0.0
51996.0,STARLINK-3538,PAYLOAD,2022-06-20 14:00:01,15.21415449,0.0001198,53.2175,356.2694,91.7656,311.3788,-0.034163,-0.00723775,0.0,0 STARLINK-3538,1 51996U 22025AS  22171.58334491 -.00723775  00000-0 -34163-1 0  9992,2 51996  53.2175 356.2694 0001198  91.7656 311.3788 15.21415449  1304,6879.706999999999,94.649,502.396,500.74800000000016,0.0
51996.0,STARLINK-3538,PAYLOAD,2022-06-20 22:00:00,15.20904156,0.0001203,53.2175,354.7452,90.7325,338.8068,-0.034592,-0.00722029,0.0,0 STARLINK-3538,1 51996U 22025AS  22171.91667824 -.00722029  00000-0 -34592-1 0  9995,2 51996  53.2175 354.7452 0001203  90.7325 338.8068 15.20904156 17453,6881.249,94.681,503.942,502.286,0.0
51996.0,STARLINK-3538,PAYLOAD,2022-06-21 14:00:01,15.19885067,0.0001318,53.2175,351.6953,80.7061,39.7861,-0.03571,-0.00723327,0.0,0 STARLINK-3538,1 51996U 22025AS  22172.58334491 -.00723327  00000-0 -35710-1 0  9995,2 51996  53.2175 351.6953 0001318  80.7061  39.7861 15.19885067  1300,6884.325,94.744,507.097,505.282,0.0
51996.0,STARLINK-3538,PAYLOAD,2022-06-21 22:00:00,15.19372285,0.0001317,53.2175,350.1746,88.0366,57.0126,-0.035995,-0.00718597,0.0,0 STARLINK-3538,1 51996U 22025AS  22172.91667824 -.00718597  00000-0 -35995-1 0  9999,2 51996  53.2175 350.1746 0001317  88.0366  57.0126 15.19372285 17613,6885.874,94.776,508.645,506.832,0.0
51996.0,STARLINK-3538,PAYLOAD,2022-06-22 14:00:01,15.18354527,0.0001416,53.2176,347.1321,85.2058,107.1189,-0.037278,-0.00722252,0.0,0 STARLINK-3538,1 51996U 22025AS  22173.58334491 -.00722252  00000-0 -37278-1 0  9993,2 51996  53.2176 347.1321 0001416  85.2058 107.1189 15.18354527  1309,6888.95,94.84,511.791,509.84,0.0
51996.0,STARLINK-3538,PAYLOAD,2022-06-22 22:00:00,15.17841559,0.0001394,53.2174,345.6148,89.432,125.6114,-0.037523,-0.00716675,0.0,0 STARLINK-3538,1 51996U 22025AS  22173.91667824 -.00716675  00000-0 -37523-1 0  9994,2 51996  53.2174 345.6148 0001394  89.4320 125.6114 15.17841559 17765,6890.502,94.872,513.328,511.407,0.0
51996.0,STARLINK-3538,PAYLOAD,2022-06-23 14:00:01,15.16824355,0.0001395999999999,53.2174,342.5795,82.3823,176.2597,-0.038922,-0.00721558,0.0,0 STARLINK-3538,1 51996U 22025AS  22174.58334491 -.00721558  00000-0 -38922-1 0  9999,2 51996  53.2174 342.5795 0001396  82.3823 176.2597 15.16824355  1305,6893.583000000001,94.935,516.41,514.485,0.0
51996.0,STARLINK-3538,PAYLOAD,2022-06-23 22:00:00,15.16312392,0.0001337,53.2173,341.0657,93.2084,186.3135,-0.039261,-0.00717507,0.0,0 STARLINK-3538,1 51996U 22025AS  22174.91667824 -.00717507  00000-0 -39261-1 0  9991,2 51996  53.2173 341.0657 0001337  93.2084 186.3135 15.16312392 17917,6895.134,94.967,517.9209999999998,516.077,0.0
51996.0,STARLINK-3538,PAYLOAD,2022-06-24 14:00:01,15.15294843,0.0001308,53.2175,338.0376,80.4516,238.9923,-0.040695,-0.00722059,0.0,0 STARLINK-3538,1 51996U 22025AS  22175.58334491 -.00722059  00000-0 -40695-1 0  9997,2 51996  53.2175 338.0376 0001308  80.4516 238.9923 15.15294843  1303,6898.221,95.031,520.988,519.183,0.0
51996.0,STARLINK-3538,PAYLOAD,2022-06-24 22:00:01,15.14783483,0.0001226,53.2173,336.5272,98.6048,239.9437,-0.041106,-0.00719022,0.0,0 STARLINK-3538,1 51996U 22025AS  22175.91668981 -.00719022  00000-0 -41106-1 0  9992,2 51996  53.2173 336.5272 0001226  98.6048 239.9437 15.14783483 18063,6899.773,95.063,522.484,520.7919999999998,0.0
51996.0,STARLINK-3538,PAYLOAD,2022-06-25 14:00:01,15.13765422,0.000126,53.2176,333.5064,75.0785,299.6522,-0.042554,-0.00722899,0.0,0 STARLINK-3538,1 51996U 22025AS  22176.58334491 -.00722899  00000-0 -42554-1 0  9996,2 51996  53.2176 333.5064 0001260  75.0785 299.6522 15.13765422  1306,6902.866,95.127,525.601,523.861,0.0
51996.0,STARLINK-3538,PAYLOAD,2022-06-25 22:00:00,15.13254002,0.0001194,53.2173,331.9994,83.7739,308.1601,-0.042966,-0.00719664,0.0,0 STARLINK-3538,1 51996U 22025AS  22176.91667824 -.00719664  00000-0 -42966-1 0  9995,2 51996  53.2173 331.9994 0001194  83.7739 308.1601 15.13254002 18217,6904.420999999999,95.159,527.111,525.462,0.0
51996.0,STARLINK-3538,PAYLOAD,2022-06-26 14:00:01,15.12235426,0.0001309,53.2175,328.986,69.355,355.2107,-0.04443,-0.00722954,0.0,0 STARLINK-3538,1 51996U 22025AS  22177.58335648 -.00722954  00000-0 -44430-1 0  9999,2 51996  53.2175 328.9860 0001309  69.3550 355.2107 15.12235426  1300,6907.521,95.223,530.2909999999998,528.482,0.0
51996.0,STARLINK-3538,PAYLOAD,2022-06-26 22:00:00,15.11724062,0.0001239,53.2172,327.4823,81.2108,358.6569,-0.044848,-0.00719619,0.0,0 STARLINK-3538,1 51996U 22025AS  22177.91667824 -.00719619  00000-0 -44848-1 0  9997,2 51996  53.2172 327.4823 0001239  81.2108 358.6569 15.11724062 18376,6909.079000000002,95.255,531.8,530.0880000000002,0.0
51996.0,STARLINK-3538,PAYLOAD,2022-06-27 14:00:01,15.10704851,0.0001392,53.2175,324.4761,67.4536,41.3064,-0.046305,-0.00722025,0.0,0 STARLINK-3538,1 51996U 22025AS  22178.58334491 -.00722025  00000-0 -46305-1 0  9997,2 51996  53.2175 324.4761 0001392  67.4536  41.3064 15.10704851  1302,6912.186,95.32,535.013,533.089,0.0
51996.0,STARLINK-3538,PAYLOAD,2022-06-27 22:00:00,15.10194148,0.0001303,53.2172,322.9757,90.912,31.3744,-0.046799,-0.0071962,0.0,0 STARLINK-3538,1 51996U 22025AS  22178.91667824 -.00719620  00000-0 -46799-1 0  9997,2 51996  53.2172 322.9757 0001303  90.9120  31.3744 15.10194148 18527,6913.744000000002,95.352,536.51,534.7090000000002,0.0
51996.0,STARLINK-3538,PAYLOAD,2022-06-28 14:00:01,15.0918226,0.0001147,53.2175,319.9774,71.4368,76.0525,-0.025535,-0.00388896,0.0,0 STARLINK-3538,1 51996U 22025AS  22179.58334491 -.00388896  00000-0 -25535-1 0  9994,2 51996  53.2175 319.9774 0001147  71.4368  76.0525 15.09182260 18623,6916.834,95.416,539.493,537.906,0.0
51996.0,STARLINK-3538,PAYLOAD,2022-06-28 22:00:00,15.08837008,0.0001274999999999,53.2172,318.4808,94.9855,64.352,3.2831e-05,2.35e-06,0.0,0 STARLINK-3538,1 51996U 22025AS  22179.91667824  .00000235  00000-0  32831-4 0  9996,2 51996  53.2172 318.4808 0001275  94.9855  64.3520 15.08837008  1303,6917.89,95.438,540.637,538.873,0.0
